STARLINK-1111           
1 44924C 20001L   22019.11423084  .00014251  00000-0  95515-3 0   197
2 44924  53.0541 287.8601 0001780  61.3319  35.1924 15.06371859    14
STARLINK-1112           
1 44925C 20001M   22019.13945009  .00004274  00000-0  28634-3 0   198
2 44925  53.0533 287.7405 0001880  53.2580 100.2300 15.06393224    10
STARLINK-1113           
1 44926C 20001N   22019.13420868  .00013849  00000-0  94837-3 0   196
2 44926  52.9986 287.7690 0001788  64.9240  87.1611 15.05574715    19
STARLINK-1114           
1 44927C 20001P   22019.14096465  .00014793  00000-0  99101-3 0   198
2 44927  53.0527 287.7324 0001868  62.7383  38.9020 15.06387365    12
STARLINK-1119           
1 44928C 20001Q   22019.13715539  .00014594  00000-0  97820-3 0   193
2 44928  53.0519 287.7655 0001700  64.4163  36.4772 15.06369683    11
STARLINK-1121           
1 44929C 20001R   22019.12203663  .00013955  00000-0  93512-3 0   197
2 44929  53.0534 287.8155 0001703  63.4474  35.4386 15.06379583    12
STARLINK-1123           
1 44930C 20001S   22019.13731942  .00008941  00000-0  59896-3 0   192
2 44930  53.0523 287.7555 0001729  62.7531 299.1175 15.06395982    15
STARLINK-1128           
1 44931C 20001T   22019.13698404  .00016379  00000-0  99676-3 0   192
2 44931  53.0524 286.5857 0002996  87.6641 273.3337 15.09905690    14
STARLINK-1130 (DARKSAT) 
1 44932C 20001U   22019.14477215  .00015160  00000-0  10158-2 0   193
2 44932  53.0527 287.7274 0001584  60.9620  41.3193 15.06381182    11
STARLINK-1144           
1 44933C 20001V   22019.10277689  .00014673  00000-0  98303-3 0   190
2 44933  53.0541 287.9140 0001629  67.3498  27.0729 15.06386791    13
STARLINK-1071           
1 44934C 20001W   22019.11839332  .00014249  00000-0  95471-3 0   193
2 44934  53.0531 267.8416 0001836  77.3985  31.7013 15.06382864    13
STARLINK-1079           
1 44937C 20001Z   22019.09546748  .00013468  00000-0  90253-3 0   194
2 44937  53.0519 267.9476 0001934  66.9958  37.7498 15.06378399    13
STARLINK-1082           
1 44938C 20001AA  22019.14705091  .00013818  00000-0  92573-3 0   195
2 44938  53.0532 267.7117 0001899  64.3446 140.3091 15.06386804    13
STARLINK-1083           
1 44939C 20001AB  22019.14722176  .00013479  00000-0  90310-3 0   199
2 44939  53.0522 267.7139 0001799  62.3672 103.2180 15.06384705    10
STARLINK-1091           
1 44940C 20001AC  22019.13560039  .00012942  00000-0  86750-3 0   195
2 44940  53.0523 267.7612 0001876  61.1815 341.2852 15.06369464    16
STARLINK-1094           
1 44941C 20001AD  22019.10294831  .00014181  00000-0  95048-3 0   194
2 44941  53.0525 267.9092 0002157  68.3690  36.9227 15.06371423    18
STARLINK-1096           
1 44942C 20001AE  22019.14323373  .00013629  00000-0  91330-3 0   199
2 44942  53.0514 267.7295 0001953  64.7091 339.2216 15.06378570    15
STARLINK-1100           
1 44943C 20001AF  22019.14401619  .00013566  00000-0  90907-3 0   199
2 44943  53.0527 267.7293 0001853  64.5798 103.5913 15.06380136    16
STARLINK-1108           
1 44944C 20001AG  22019.11457201  .00014368  00000-0  96294-3 0   191
2 44944  53.0529 267.8567 0002127  59.3950  48.9757 15.06373802    11
STARLINK-1109           
1 44945C 20001AH  22019.14550162  .00018717  00000-0  12538-2 0   195
2 44945  53.0521 267.7138 0001780  60.1924  55.9578 15.06385938    14
STARLINK-1110           
1 44946C 20001AJ  22019.14634308  .00014896  00000-0  91653-3 0   191
2 44946  53.0021 261.9777 0003041  89.0558  31.1684 15.09505868    13
STARLINK-1116           
1 44947C 20001AK  22019.09929507  .00013950  00000-0  93503-3 0   190
2 44947  53.0519 267.9181 0001764  64.2823  41.1931 15.06370356    16
STARLINK-1122           
1 44949C 20001AM  22019.14343692  .00014003  00000-0  93850-3 0   198
2 44949  53.0521 267.7366 0001890  66.7991 138.1908 15.06373589    19
STARLINK-1125           
1 44950C 20001AN  22019.14168391  .00013242  00000-0  88746-3 0   193
2 44950  53.0519 267.7363 0001793  68.1031  47.3982 15.06375024    17
STARLINK-1126           
1 44951C 20001AP  22019.14063860  .00015342  00000-0  94822-3 0   194
2 44951  53.0016 262.6308 0003148  86.1688 320.9330 15.09343002    18
STARLINK-1117           
1 44952C 20001AQ  22019.10692933  .00005419  00000-0  36301-3 0   192
2 44952  53.0527 267.8916 0002025  66.6327  40.3663 15.06397946    19
STARLINK-1124           
1 44953C 20001AR  22019.14256515 -.00001807  00000-0 -12104-3 0   193
2 44953  53.0496 267.7339 0001810  66.6523 138.8372 15.06404269    19
STARLINK-1066           
1 44954C 20001AS  22019.12925649  .00010987  00000-0  73641-3 0   193
2 44954  53.0513 247.7861 0002131  70.1757 347.8664 15.06372915    12
STARLINK-1069           
1 44955C 20001AT  22019.09913157  .00037717  00000-0  25276-2 0   191
2 44955  53.0528 247.9396 0001972  65.3329 149.2506 15.06352227    10
STARLINK-1070           
1 44956C 20001AU  22019.13178399  .00010540  00000-0  70613-3 0   199
2 44956  53.0523 247.7863 0002094  68.9071 342.9344 15.06390991    14
STARLINK-1074           
1 44957C 20001AV  22019.12102086  .00011125  00000-0  74553-3 0   196
2 44957  53.0519 247.8379 0002087  68.8362 144.5578 15.06379568    19
STARLINK-1076           
1 44959C 20001AX  22019.13593389  .00020496  00000-0  13730-2 0   199
2 44959  53.0507 247.7685 0002106  66.5672 147.6704 15.06384251    18
STARLINK-1080           
1 44961C 20001AZ  22019.14340004  .00011451  00000-0  76757-3 0   197
2 44961  53.0526 247.7320 0002336  67.9428 146.8282 15.06371092    18
STARLINK-1086           
1 44964C 20001BC  22019.10468759  .00010563  00000-0  70774-3 0   190
2 44964  53.0511 247.9004 0001976  79.9974 124.8195 15.06387821    10
STARLINK-1088           
1 44966C 20001BE  22019.12847069  .00011601  00000-0  77736-3 0   198
2 44966  53.0518 247.7955 0002036  71.3912 142.4211 15.06380827    12
STARLINK-1089           
1 44967C 20001BF  22019.12123168  .00011474  00000-0  76901-3 0   197
2 44967  53.0530 247.8366 0002146  63.8809 350.6251 15.06374203    15
STARLINK-1090           
1 44968C 20001BG  22019.14741500  .00011047  00000-0  74040-3 0   194
2 44968  53.0526 247.7106 0002039  62.9799 153.5910 15.06374179    15
STARLINK-1092           
1 44969C 20001BH  22019.13974910  .00011662  00000-0  78156-3 0   192
2 44969  53.0521 247.7440 0002036  68.3654 146.6318 15.06376560    10
STARLINK-1093           
1 44970C 20001BJ  22019.11650627  .00010841  00000-0  72668-3 0   198
2 44970  53.0504 247.8550 0001839  72.1758 136.7084 15.06371502    15
STARLINK-1107           
1 44972C 20001BL  22019.12504543  .00011192  00000-0  75013-3 0   193
2 44972  53.0517 247.7988 0002164  67.0850 348.1168 15.06373907    16
STARLINK-1115           
1 44973C 20001BM  22019.13231425  .00011762  00000-0  78804-3 0   195
2 44973  53.0525 247.7862 0001954  71.7338 142.9636 15.06387317    16
STARLINK-1132           
1 45044C 20006A   22019.13890573 -.00021156  00000-0 -14174-2 0   194
2 45044  53.0524 207.7520 0002325  74.7373 315.7712 15.06420752    13
STARLINK-1120           
1 45045C 20006B   22019.09411962  .00008556  00000-0  57322-3 0   191
2 45045  53.0516 227.9450 0002545  71.7962 145.6612 15.06389864    13
STARLINK-1131           
1 45047C 20006D   22019.09810146  .00008231  00000-0  55146-3 0   192
2 45047  53.0518 227.9357 0002206  76.6536 142.4442 15.06392223    17
STARLINK-1134           
1 45048C 20006E   22019.10607030  .00007385  00000-0  49501-3 0   198
2 45048  53.0514 227.8910 0002140  74.8329 147.4158 15.06372537    10
STARLINK-1135           
1 45049C 20006F   22019.12536677  .00006349  00000-0  42534-3 0   197
2 45049  53.0521 227.8145 0002331  69.9518 237.1022 15.06395900    12
STARLINK-1140           
1 45050C 20006G   22019.13231698  .00005668  00000-0  37998-3 0   196
2 45050  53.0507 227.7779 0002387  78.7452 225.9141 15.06370288    15
STARLINK-1141           
1 45051C 20006H   22019.14144369  .00011988  00000-0  77597-3 0   197
2 45051  53.0498 227.2954 0001990 101.4431 134.5331 15.07658656    10
STARLINK-1148           
1 45052C 20006J   22019.13960024  .00005394  00000-0  36142-3 0   196
2 45052  53.0506 227.7462 0002483  74.0434 230.2099 15.06388594    11
STARLINK-1155           
1 45053C 20006K   22019.14760196  .00005768  00000-0  36547-3 0   190
2 45053  52.9979 224.7287 0003083  90.5913 215.9658 15.08442671    18
STARLINK-1156           
1 45054C 20006L   22019.13594377  .00005426  00000-0  36360-3 0   190
2 45054  53.0527 227.7722 0002361  76.5424 227.8581 15.06389319    10
STARLINK-1159           
1 45057C 20006P   22019.14099326  .00006185  00000-0  41441-3 0   197
2 45057  53.0505 227.7283 0002428  77.1230 174.6984 15.06392608    18
STARLINK-1162           
1 45058C 20006Q   22019.14341895  .00005384  00000-0  36079-3 0   190
2 45058  53.0497 227.7329 0002218  76.4558 228.4964 15.06387732    10
STARLINK-1165           
1 45059C 20006R   22019.08246286  .00009313  00000-0  62428-3 0   195
2 45059  53.0518 228.0034 0002538  72.4231 141.7166 15.06370245    13
STARLINK-1166           
1 45060C 20006S   22019.07883160  .00009355  00000-0  62716-3 0   190
2 45060  53.0510 228.0218 0002341  70.3128 144.1321 15.06366460    19
STARLINK-1169           
1 45061C 20006T   22019.08629166  .00009198  00000-0  61622-3 0   196
2 45061  53.0523 227.9956 0002391  77.3262 137.6928 15.06393254    13
STARLINK-1171           
1 45062C 20006U   22019.14114678  .00006510  00000-0  43631-3 0   196
2 45062  53.0512 227.7324 0002400  73.4564 159.1346 15.06382508    15
STARLINK-1133           
1 45064C 20006W   22019.11493860  .00004581  00000-0  30696-3 0   191
2 45064  53.0528 207.8427 0002301  78.6593 301.7408 15.06386708    16
STARLINK-1139           
1 45065C 20006X   22019.12065769  .00004583  00000-0  30721-3 0   197
2 45065  53.0508 207.8391 0002231  76.2118 315.2114 15.06373095    13
